{
  "norad_id": 28659,
  "name": "DIRECTV 8",
  "history": [
    {
      "epoch": "2026-03-28T15:55:51.215808Z",
      "apogee_km": 35800.675431748154,
      "perigee_km": 35773.239448097986,
      "latitude_deg": 0.038052183179194066,
      "longitude_deg": -119.05994284129564,
      "height_km": 35782.02064001765,
      "semi_major_axis_km": 42165.09443992307,
      "eccentricity": 0.00032534,
      "inclination_deg": 0.0247,
      "raan_deg": 177.3555,
      "arg_perigee_deg": 200.0734,
      "mean_anomaly_deg": 288.5675,
      "mean_motion_rev_day": 1.00270492
    },
    {
      "epoch": "2026-03-29T05:16:10.016832Z",
      "apogee_km": 35800.88180621329,
      "perigee_km": 35772.99382573002,
      "latitude_deg": -0.0257567652125333,
      "longitude_deg": -118.99458254303124,
      "height_km": 35795.036332574666,
      "semi_major_axis_km": 42165.07481597166,
      "eccentricity": 0.0003307,
      "inclination_deg": 0.0248,
      "raan_deg": 176.3736,
      "arg_perigee_deg": 202.5301,
      "mean_anomaly_deg": 127.719,
      "mean_motion_rev_day": 1.00270562
    }
  ]
}